CZ-2C R/B               
1 54039U 22132E   26007.97882311  .00033908  00000+0  47114-3 0  9997
2 54039  97.2949   9.7132 0018042 322.4781  37.5214 15.56742561180910
GSLV R/B                
1 54149U 22138AN  26007.93926774  .00002263  00000+0  19689-3 0  9999
2 54149  87.3827 186.6982 0022452  18.4948 341.7094 14.96297556174845
XRISM                   
1 57800U 23137A   26007.53986545  .00005919  00000+0  34292-3 0  9992
2 57800  31.0032 318.9334 0007770 147.9599 212.1513 15.10694094128530
ACS3                    
1 59588U 24077B   26007.88401187  .00012515  00000+0  10541-1 0  9992
2 59588  97.2483 322.6481 0065609 272.5706  86.7947 13.86902051 85763
SZ-21 MODULE            
1 66515U 25246C   26007.86050997  .00025291  00000+0  26192-3 0  9992
2 66515  41.4742 216.5245 0001494  84.1343 275.9668 15.64106684  8533
